{
  "type": "FeatureCollection",
  "features": [
    {
      "type": "Feature",
      "properties": {
        "norad_id": 67117,
        "name": "STARLINK-35674",
        "group": "last-30-days",
        "lat": 4.7975111486072555,
        "lon": 48.265650178629635,
        "alt_km": 330.4165441670548,
        "timestamp": "2025-12-26T07:29:17.196905+00:00",
        "meta_object_name": "STARLINK-35674",
        "meta_object_id": "2025-299R",
        "meta_epoch": "2025-12-25T22:00:01.999584",
        "meta_mean_motion": 15.81324606,
        "meta_eccentricity": 0.00015231,
        "meta_inclination": 42.9969,
        "meta_ra_of_asc_node": 235.8523,
        "meta_arg_of_pericenter": 271.5974,
        "meta_mean_anomaly": 169.2192,
        "meta_ephemeris_type": 0,
        "meta_classification_type": "U",
        "meta_norad_cat_id": 67117,
        "meta_element_set_no": 999,
        "meta_rev_at_epoch": 272,
        "meta_bstar": -0.010114455,
        "meta_mean_motion_dot": -0.01812454,
        "meta_mean_motion_ddot": 0,
        "tle_line1": "1 67117U 25299R   25359.91668981 -.01812454  00000+0 -10114-1 0  9995",
        "tle_line2": "2 67117  42.9969 235.8523 0001523 271.5974 169.2192 15.81324606  2724"
      },
      "geometry": {
        "type": "Point",
        "coordinates": [
          48.265650178629635,
          4.7975111486072555
        ]
      }
    },
    {
      "type": "Feature",
      "properties": {
        "norad_id": 67118,
        "name": "STARLINK-35701",
        "group": "last-30-days",
        "lat": 3.596267715358513,
        "lon": 49.561442736948976,
        "alt_km": 330.72585966272527,
        "timestamp": "2025-12-26T07:29:17.196917+00:00",
        "meta_object_name": "STARLINK-35701",
        "meta_object_id": "2025-299S",
        "meta_epoch": "2025-12-25T22:00:01.999584",
        "meta_mean_motion": 15.81325022,
        "meta_eccentricity": 0.00016085,
        "meta_inclination": 42.9968,
        "meta_ra_of_asc_node": 235.8478,
        "meta_arg_of_pericenter": 278.7573,
        "meta_mean_anomaly": 163.823,
        "meta_ephemeris_type": 0,
        "meta_classification_type": "U",
        "meta_norad_cat_id": 67118,
        "meta_element_set_no": 999,
        "meta_rev_at_epoch": 287,
        "meta_bstar": -0.010083795,
        "meta_mean_motion_dot": -0.01807742,
        "meta_mean_motion_ddot": 0,
        "tle_line1": "1 67118U 25299S   25359.91668981 -.01807742  00000+0 -10084-1 0  9996",
        "tle_line2": "2 67118  42.9968 235.8478 0001608 278.7573 163.8230 15.81325022  2873"
      },
      "geometry": {
        "type": "Point",
        "coordinates": [
          49.561442736948976,
          3.596267715358513
        ]
      }
    },
    {
      "type": "Feature",
      "properties": {
        "norad_id": 67119,
        "name": "STARLINK-36179",
        "group": "last-30-days",
        "lat": 1.5969300432400144,
        "lon": 51.706648081634164,
        "alt_km": 330.7407799952898,
        "timestamp": "2025-12-26T07:29:17.196927+00:00",
        "meta_object_name": "STARLINK-36179",
        "meta_object_id": "2025-299T",
        "meta_epoch": "2025-12-25T22:00:01.999584",
        "meta_mean_motion": 15.81358608,
        "meta_eccentricity": 0.00016005,
        "meta_inclination": 42.9965,
        "meta_ra_of_asc_node": 235.84,
        "meta_arg_of_pericenter": 275.1107,
        "meta_mean_anomaly": 170.3582,
        "meta_ephemeris_type": 0,
        "meta_classification_type": "U",
        "meta_norad_cat_id": 67119,
        "meta_element_set_no": 999,
        "meta_rev_at_epoch": 292,
        "meta_bstar": -0.010069027,
        "meta_mean_motion_dot": -0.01807916,
        "meta_mean_motion_ddot": 0,
        "tle_line1": "1 67119U 25299T   25359.91668981 -.01807916  00000+0 -10069-1 0  9993",
        "tle_line2": "2 67119  42.9965 235.8400 0001600 275.1107 170.3582 15.81358608  2927"
      },
      "geometry": {
        "type": "Point",
        "coordinates": [
          51.706648081634164,
          1.5969300432400144
        ]
      }
    },
    {
      "type": "Feature",
      "properties": {
        "norad_id": 67120,
        "name": "STARLINK-36217",
        "group": "last-30-days",
        "lat": 2.5416577775942013,
        "lon": 50.69456234021256,
        "alt_km": 330.68025482974645,
        "timestamp": "2025-12-26T07:29:17.196936+00:00",
        "meta_object_name": "STARLINK-36217",
        "meta_object_id": "2025-299U",
        "meta_epoch": "2025-12-25T22:00:01.999584",
        "meta_mean_motion": 15.81344346,
        "meta_eccentricity": 0.00015799,
        "meta_inclination": 42.9968,
        "meta_ra_of_asc_node": 235.8439,
        "meta_arg_of_pericenter": 274.3619,
        "meta_mean_anomaly": 169.7449,
        "meta_ephemeris_type": 0,
        "meta_classification_type": "U",
        "meta_norad_cat_id": 67120,
        "meta_element_set_no": 999,
        "meta_rev_at_epoch": 292,
        "meta_bstar": -0.010116295,
        "meta_mean_motion_dot": -0.01814271,
        "meta_mean_motion_ddot": 0,
        "tle_line1": "1 67120U 25299U   25359.91668981 -.01814271  00000+0 -10116-1 0  9990",
        "tle_line2": "2 67120  42.9968 235.8439 0001579 274.3619 169.7449 15.81344346  2926"
      },
      "geometry": {
        "type": "Point",
        "coordinates": [
          50.69456234021256,
          2.5416577775942013
        ]
      }
    },
    {
      "type": "Feature",
      "properties": {
        "norad_id": 67121,
        "name": "STARLINK-36124",
        "group": "last-30-days",
        "lat": -0.800169735860168,
        "lon": 54.27176573951853,
        "alt_km": 331.053496105038,
        "timestamp": "2025-12-26T07:29:17.196946+00:00",
        "meta_object_name": "STARLINK-36124",
        "meta_object_id": "2025-299V",
        "meta_epoch": "2025-12-25T22:00:01.999584",
        "meta_mean_motion": 15.81374766,
        "meta_eccentricity": 0.00015257,
        "meta_inclination": 42.9966,
        "meta_ra_of_asc_node": 235.8316,
        "meta_arg_of_pericenter": 279.7333,
        "meta_mean_anomaly": 169.2316,
        "meta_ephemeris_type": 0,
        "meta_classification_type": "U",
        "meta_norad_cat_id": 67121,
        "meta_element_set_no": 999,
        "meta_rev_at_epoch": 292,
        "meta_bstar": -0.010094945,
        "meta_mean_motion_dot": -0.01813138,
        "meta_mean_motion_ddot": 0,
        "tle_line1": "1 67121U 25299V   25359.91668981 -.01813138  00000+0 -10095-1 0  9998",
        "tle_line2": "2 67121  42.9966 235.8316 0001525 279.7333 169.2316 15.81374766  2929"
      },
      "geometry": {
        "type": "Point",
        "coordinates": [
          54.27176573951853,
          -0.800169735860168
        ]
      }
    },
    {
      "type": "Feature",
      "properties": {
        "norad_id": 67122,
        "name": "STARLINK-36188",
        "group": "last-30-days",
        "lat": -1.8572274035020984,
        "lon": 55.4035434050921,
        "alt_km": 330.8680488196851,
        "timestamp": "2025-12-26T07:29:17.196962+00:00",
        "meta_object_name": "STARLINK-36188",
        "meta_object_id": "2025-299W",
        "meta_epoch": "2025-12-25T22:00:01.999584",
        "meta_mean_motion": 15.81389853,
        "meta_eccentricity": 0.00015852,
        "meta_inclination": 42.9968,
        "meta_ra_of_asc_node": 235.8279,
        "meta_arg_of_pericenter": 270.0752,
        "meta_mean_anomaly": 180.4211,
        "meta_ephemeris_type": 0,
        "meta_classification_type": "U",
        "meta_norad_cat_id": 67122,
        "meta_element_set_no": 999,
        "meta_rev_at_epoch": 292,
        "meta_bstar": -0.010093525,
        "meta_mean_motion_dot": -0.01814097,
        "meta_mean_motion_ddot": 0,
        "tle_line1": "1 67122U 25299W   25359.91668981 -.01814097  00000+0 -10094-1 0  9993",
        "tle_line2": "2 67122  42.9968 235.8279 0001585 270.0752 180.4211 15.81389853  2927"
      },
      "geometry": {
        "type": "Point",
        "coordinates": [
          55.4035434050921,
          -1.8572274035020984
        ]
      }
    },
    {
      "type": "Feature",
      "properties": {
        "norad_id": 67123,
        "name": "STARLINK-36151",
        "group": "last-30-days",
        "lat": 0.41508682351585086,
        "lon": 52.972294830417496,
        "alt_km": 330.77881076124504,
        "timestamp": "2025-12-26T07:29:17.196974+00:00",
        "meta_object_name": "STARLINK-36151",
        "meta_object_id": "2025-299X",
        "meta_epoch": "2025-12-25T22:00:01.999584",
        "meta_mean_motion": 15.81367287,
        "meta_eccentricity": 0.00015098,
        "meta_inclination": 42.997,
        "meta_ra_of_asc_node": 235.8365,
        "meta_arg_of_pericenter": 273.0499,
        "meta_mean_anomaly": 174.1416,
        "meta_ephemeris_type": 0,
        "meta_classification_type": "U",
        "meta_norad_cat_id": 67123,
        "meta_element_set_no": 999,
        "meta_rev_at_epoch": 292,
        "meta_bstar": -0.01008317,
        "meta_mean_motion_dot": -0.01810709,
        "meta_mean_motion_ddot": 0,
        "tle_line1": "1 67123U 25299X   25359.91668981 -.01810709  00000+0 -10083-1 0  9998",
        "tle_line2": "2 67123  42.9970 235.8365 0001509 273.0499 174.1416 15.81367287  2928"
      },
      "geometry": {
        "type": "Point",
        "coordinates": [
          52.972294830417496,
          0.41508682351585086
        ]
      }
    }
  ]
}